[{"OBJECT_NAME":"WARATAH SEED-1","OBJECT_ID":"2024-149B","EPOCH":"2026-03-09T19:21:48.743424","MEAN_MOTION":15.33303417,"ECCENTRICITY":0.00017261,"INCLINATION":97.3737,"RA_OF_ASC_NODE":149.4647,"ARG_OF_PERICENTER":177.0754,"MEAN_ANOMALY":183.0499,"EPHEMERIS_TYPE":0,"CLASSIFICATION_TYPE":"U","NORAD_CAT_ID":60469,"ELEMENT_SET_NO":999,"REV_AT_EPOCH":8687,"BSTAR":0.00046860168,"MEAN_MOTION_DOT":0.00015015,"MEAN_MOTION_DDOT":0},{"OBJECT_NAME":"STARLINK-34830","OBJECT_ID":"2025-192B","EPOCH":"2026-03-09T17:53:24.967968","MEAN_MOTION":15.31064913,"ECCENTRICITY":0.00031616,"INCLINATION":53.1594,"RA_OF_ASC_NODE":232.0306,"ARG_OF_PERICENTER":350.889,"MEAN_ANOMALY":9.2053,"EPHEMERIS_TYPE":0,"CLASSIFICATION_TYPE":"U","NORAD_CAT_ID":65405,"ELEMENT_SET_NO":999,"REV_AT_EPOCH":2940,"BSTAR":0.0048941642,"MEAN_MOTION_DOT":0.00151602,"MEAN_MOTION_DDOT":0}]
